TIANMU-1 07             
1 57399U 23101A   26065.57454230  .00008352  00000+0  29795-3 0  9991
2 57399  97.2728 118.5929 0004609 142.4105 217.7458 15.29118809145964
STARLINK-36412          
1 67518U 26012AB  26068.02545720  .00029885  00000+0  10902-2 0  9990
2 67518  43.0014 317.8493 0007043 233.6209 126.3993 15.27589895  7666
